[{"OBJECT_NAME":"YAOGAN-30 09B","OBJECT_ID":"2021-039B","EPOCH":"2026-03-09T22:20:48.922656","MEAN_MOTION":15.02072563,"ECCENTRICITY":0.00040485,"INCLINATION":34.9947,"RA_OF_ASC_NODE":275.8048,"ARG_OF_PERICENTER":16.716,"MEAN_ANOMALY":343.368,"EPHEMERIS_TYPE":0,"CLASSIFICATION_TYPE":"U","NORAD_CAT_ID":48424,"ELEMENT_SET_NO":999,"REV_AT_EPOCH":26460,"BSTAR":0.00030086598,"MEAN_MOTION_DOT":4.004e-5,"MEAN_MOTION_DDOT":0},{"OBJECT_NAME":"STARLINK-5670","OBJECT_ID":"2023-013L","EPOCH":"2026-03-09T01:40:48.302400","MEAN_MOTION":15.02534119,"ECCENTRICITY":0.00010549,"INCLINATION":43.003,"RA_OF_ASC_NODE":303.9234,"ARG_OF_PERICENTER":272.6238,"MEAN_ANOMALY":87.4484,"EPHEMERIS_TYPE":0,"CLASSIFICATION_TYPE":"U","NORAD_CAT_ID":55341,"ELEMENT_SET_NO":999,"REV_AT_EPOCH":17161,"BSTAR":-6.1967083e-5,"MEAN_MOTION_DOT":-1.04e-5,"MEAN_MOTION_DDOT":0}]
